0 SL-16 R/B
1 25407U 98045B   13282.14714200 -.00000233  00000-0 -94575-4 0  3010
2 25407 071.0141 351.9025 0005203 099.3948 276.3863 14.15620628785540
0 SL-16 R/B
1 25407U 98045B   13283.20694617 -.00000256  00000-0 -10616-3 0  3026
2 25407 071.0139 349.6762 0005188 097.0783 278.0958 14.15620407785698
0 SL-16 R/B
1 25407U 98045B   13286.83140140 -.00000244  00000-0 -10037-3 0  3041
2 25407 071.0129 342.0624 0005316 089.8022 030.9103 14.15619012786204
0 SL-16 R/B
1 25407U 98045B   13288.15633104 -.00000216  00000-0 -85701-4 0  3056
2 25407 071.0125 339.2790 0005304 086.8184 304.0178 14.15618604786398
0 SL-16 R/B
1 25407U 98045B   13289.51013442 -.00000198  00000-0 -76586-4 0  3065
2 25407 071.0122 336.4348 0005353 084.0256 004.0373 14.15617832786584
0 SL-16 R/B
1 25407U 98045B   13290.64417192 -.00000152  00000-0 -53274-4 0  3071
2 25407 071.0119 334.0521 0005441 082.1586 023.4869 14.15617197786747
0 SL-16 R/B
1 25407U 98045B   13292.47997576 -.00000074  00000-0 -13675-4 0  3088
2 25407 071.0117 330.1950 0005526 078.7286 019.7853 14.15615739787001
0 SL-16 R/B
1 25407U 98045B   13293.53955130 -.00000006  00000-0  21080-4 0  3090
2 25407 071.0117 327.9688 0005578 076.7365 019.9932 14.15614982787151
0 SL-16 R/B
1 25407U 98045B   13294.54162812  .00000069  00000-0  59345-4 0  3104
2 25407 071.0117 325.8633 0005624 074.7554 087.2499 14.15614391787293
0 SL-16 R/B
1 25407U 98045B   13295.66618375  .00000165  00000-0  10859-3 0  3112
2 25407 071.0117 323.5006 0005664 072.3859 058.8849 14.15613988787450
